STARLINK-2065           
1 47672U 21012BE  26068.25173490  .00113313  00000+0  96340-3 0  9991
2 47672  53.1532  11.1448 0006678  48.9965 311.1629 15.68762860280792
STARLINK-11157 [DTC]    
1 60122U 24118K   26068.67491873 -.00007678  00000+0 -58637-4 0  9996
2 60122  53.1574 221.1366 0001185  76.1286 283.9863 15.69683582 97990
