[{"OBJECT_NAME":"STARLINK-2065","OBJECT_ID":"2021-012BE","EPOCH":"2026-03-09T06:02:29.895360","MEAN_MOTION":15.6876286,"ECCENTRICITY":0.0006678,"INCLINATION":53.1532,"RA_OF_ASC_NODE":11.1448,"ARG_OF_PERICENTER":48.9965,"MEAN_ANOMALY":311.1629,"EPHEMERIS_TYPE":0,"CLASSIFICATION_TYPE":"U","NORAD_CAT_ID":47672,"ELEMENT_SET_NO":999,"REV_AT_EPOCH":28079,"BSTAR":0.00096339732,"MEAN_MOTION_DOT":0.00113313,"MEAN_MOTION_DDOT":0},{"OBJECT_NAME":"STARLINK-11157 [DTC]","OBJECT_ID":"2024-118K","EPOCH":"2026-03-09T16:11:52.978272","MEAN_MOTION":15.69683582,"ECCENTRICITY":0.00011848,"INCLINATION":53.1574,"RA_OF_ASC_NODE":221.1366,"ARG_OF_PERICENTER":76.1286,"MEAN_ANOMALY":283.9863,"EPHEMERIS_TYPE":0,"CLASSIFICATION_TYPE":"U","NORAD_CAT_ID":60122,"ELEMENT_SET_NO":999,"REV_AT_EPOCH":9799,"BSTAR":-5.863698e-5,"MEAN_MOTION_DOT":-7.678e-5,"MEAN_MOTION_DDOT":0}]
